CUTE-1 (CO-55)          
1 27844U 03031E   22004.94890048  .00000084  00000+0  57554-4 0  9993
2 27844  98.6800  15.1028 0009332 210.3274 149.7365 14.22366223960620
CUBESAT XI-IV (CO-57)   
1 27848U 03031J   22004.72099460  .00000063  00000+0  48115-4 0  9992
2 27848  98.6849  15.4254 0008966 225.8516 134.1925 14.21935312960410
CUBESAT XI-V            
1 28895U 05043F   22004.84785746  .00000268  00000+0  60171-4 0  9995
2 28895  98.0835 139.0347 0015523 298.1245  61.8388 14.64045054863476
CUTE-1.7+APD II (CO-65) 
1 32785U 08021C   22004.82342582  .00000633  00000+0  72861-4 0  9997
2 32785  97.6366 341.1542 0014203  59.5095 300.7523 14.88971221742137
AAUSAT-II               
1 32788U 08021F   22004.91087741  .00001694  00000+0  15542-3 0  9993
2 32788  97.5198 356.3432 0010289 319.7238  40.3220 14.96119609743975
DELFI-C3 (DO-64)        
1 32789U 08021G   22004.86301771  .00002622  00000+0  16356-3 0  9996
2 32789  97.3569  37.3924 0011900 161.0968 199.0706 15.10301582747219
SEEDS II (CO-66)        
1 32791U 08021J   22004.75328902  .00001120  00000+0  11632-3 0  9996
2 32791  97.5932 346.7759 0013660  22.2830 337.8980 14.91765929742782
SWISSCUBE               
1 35932U 09051B   22004.55916419  .00000258  00000+0  68827-4 0  9994
2 35932  98.5841 215.7502 0007371 182.6917 177.4242 14.56650708652230
BEESAT-1                
1 35933U 09051C   22004.58643659  .00000221  00000+0  60327-4 0  9998
2 35933  98.5791 217.5074 0005313 193.0685 167.0375 14.56694307652315
ITUPSAT1                
1 35935U 09051E   22004.57341443  .00000202  00000+0  57150-4 0  9994
2 35935  98.5892 217.5893 0007606 198.3967 161.6956 14.55818746652034
TISAT 1                 
1 36799U 10035E   22004.79550075  .00000843  00000+0  89039-4 0  9996
2 36799  98.1943 208.7315 0010761 274.5419  85.4570 14.92093396623357
M-CUBED & EXP-1 PRIME   
1 37855U 11061F   22004.81823992  .00002939  00000+0  14326-3 0  9998
2 37855 101.7203  38.0613 0162542 191.2038 168.5540 15.09155951556533
AEROCUBE 4.5A           
1 38767U 12048K   22004.93328885  .00001613  00000+0  12763-3 0  9992
2 38767  64.6656 263.7790 0174269 307.2120  51.3195 14.93486287126357
AEROCUBE 4.5B           
1 38768U 12048L   22004.89476141  .00001681  00000+0  12197-3 0  9993
2 38768  64.6647 221.9391 0164700 302.3132  56.2121 14.97589434126646
STRAND-1                
1 39090U 13009E   22004.75027844  .00000228  00000+0  94443-4 0  9998
2 39090  98.4111 207.0568 0009871  44.2296 315.9678 14.35225532463911
BRITE-AUSTRIA           
1 39091U 13009F   22004.52394779  .00000036  00000+0  27419-4 0  9994
2 39091  98.4117 205.9883 0011381  50.6447 309.5745 14.35219684463918
SOMP                    
1 39134U 13015E   22004.93441168  .00003442  00000+0  14752-3 0  9998
2 39134  64.8618 236.5741 0027300 304.5037  55.3515 15.24267944481907
BEESAT-3                
1 39135U 13015F   22004.91887318  .00003139  00000+0  15016-3 0  9995
2 39135  64.8674 269.2859 0026723 316.4575  43.4443 15.20682818481220
BEESAT-2                
1 39136U 13015G   22004.94133220  .00002697  00000+0  13398-3 0  9994
2 39136  64.8761 276.4882 0011231 255.1813 104.8070 15.19932041481048
NEE-01 PEGASO           
1 39151U 13018B   22004.77381501  .00000400  00000+0  59054-4 0  9992
2 39151  97.9860 111.1665 0018165  68.0668 292.2473 14.80523840469458
ESTCUBE 1               
1 39161U 13021C   22004.89000370  .00000480  00000+0  83072-4 0  9997
2 39161  97.9256  86.3111 0008651 220.6771 139.3767 14.72627814465390
POPACS 1                
1 39268U 13055D   22003.43827311  .00008336  00000+0  21994-3 0  9995
2 39268  80.9985  56.3306 0589514 337.1838  20.4093 14.45871131430894
POPACS 2                
1 39269U 13055E   22004.58126491  .00004900  00000+0  13491-3 0  9990
2 39269  81.0138 107.2567 0660164 108.7882 258.6071 14.29932374426743
POPACS 3                
1 39270U 13055F   22004.77547400  .00006356  00000+0  19529-3 0  9995
2 39270  81.0163 137.1111 0698341 193.5604 164.5942 14.19670328405399
ZACUBE-1 (TSHEPISOSAT)  
1 39417U 13066B   22004.90782033  .00000492  00000+0  67167-4 0  9995
2 39417  97.6164 344.0740 0057348 219.7070 139.9939 14.81759774438904
WNISAT-1                
1 39423U 13066H   22004.71640949  .00000365  00000+0  82106-4 0  9999
2 39423  97.7729 258.0391 0174012 289.4517  68.7950 14.53313313430664
TRITON-1                
1 39427U 13066M   22004.82348545  .00000518  00000+0  89113-4 0  9997
2 39427  97.7992 307.9513 0114271  67.8184 293.5100 14.68446242434763
DELFI-N3XT              
1 39428U 13066N   22004.81468636  .00000804  00000+0  13260-3 0  9998
2 39428  97.8021 306.4539 0120524  80.8029 280.6787 14.68337578434513
GOMX-1                  
1 39430U 13066Q   22004.92814468  .00000462  00000+0  91934-4 0  9996
2 39430  97.8158 281.4394 0149508 199.7870 159.7491 14.59800483432432
CUBEBUG-2 (LO-74)       
1 39440U 13066AA  22004.88410793  .00000624  00000+0  92638-4 0  9997
2 39440  97.7048 329.6092 0078331 302.7506  56.6172 14.76475947436142
NEE-02 KRYSAOR          
1 39441U 13066AB  22004.82278558  .00000486  00000+0  75550-4 0  9993
2 39441  97.7153 326.8122 0080221 315.4789  43.9993 14.75350845435909
FUNCUBE-1 (AO-73)       
1 39444U 13066AE  22004.90096237  .00000564  00000+0  74442-4 0  9993
2 39444  97.6055 346.4586 0056549 208.7484 151.0610 14.82715083437283
UWE-3                   
1 39446U 13066AG  22004.84920977  .00000543  00000+0  77755-4 0  9992
2 39446  97.6638 336.2807 0067868 262.6588  96.6908 14.79018511436275
AEROCUBE 5A             
1 39465U 13072D   22004.86226454  .00013527  00000+0  90095-3 0  9998
2 39465 120.4959  66.4893 0245923 107.4736 255.3356 14.86087012125226
AEROCUBE 5B             
1 39466U 13072E   22004.41939592  .00029557  00000+0  15214-2 0  9993
2 39466 120.4667 135.9959 0200287 121.7051 240.3705 15.00570744125993
BRITE-CA1 (TORONTO)     
1 40020U 14033L   22004.91574887  .00000117  00000+0  27911-4 0  9996
2 40020  97.7561 172.4256 0088422  65.5525 295.4872 14.66830118403688
DUCHIFAT-1              
1 40021U 14033M   22004.79563405  .00001327  00000+0  13740-3 0  9995
2 40021  97.9948 312.3822 0011672 215.9461 144.0972 14.91777774410298
NANOSATC-BR1            
1 40024U 14033Q   22004.81958303  .00000817  00000+0  88942-4 0  9996
2 40024  97.9705 306.5822 0010930 222.0990 137.9389 14.90806202409591
QB50P1                  
1 40025U 14033R   22004.80919748  .00000723  00000+0  81366-4 0  9995
2 40025  97.9487 301.1793 0011052 232.4350 127.5864 14.89746763409392
QB50P2                  
1 40032U 14033Y   22004.77559525  .00000690  00000+0  78894-4 0  9997
2 40032  97.9290 297.0999 0010530 229.6535 130.3763 14.89234035409255
PERSEUS-M2              
1 40037U 14033AD  22004.71520991  .00000289  00000+0  38575-4 0  9997
2 40037  97.8949 287.9254 0012921 254.0473 105.9319 14.86800409408795
PERSEUS-M1              
1 40039U 14033AF  22004.73481841  .00000282  00000+0  38142-4 0  9994
2 40039  97.8868 285.9882 0012775 252.6214 107.3604 14.86418383408683
POLYITAN-1              
1 40042U 14033AJ  22004.81649334  .00000938  00000+0  10414-3 0  9999
2 40042  97.9585 302.1841 0013358 224.0206 135.9948 14.89618419409283
TIGRISAT                
1 40043U 14033AK  22004.51531708  .00000348  00000+0  58046-4 0  9991
2 40043  97.6572 202.6113 0058924 328.6687  31.1016 14.74677623405763
AEROCUBE 6A             
1 40045U 14033AM  22004.56881168  .00000495  00000+0  77299-4 0  9990
2 40045  97.6749 210.8108 0056566 317.2107  42.4707 14.76016625405603
AEROCUBE 6B             
1 40046U 14033AN  22004.56717988  .00000717  00000+0  10851-3 0  9996
2 40046  97.6650 209.4143 0055638 315.7701  43.9068 14.76114529405608
UKUBE-1                 
1 40074U 14037F   22004.62395232  .00001069  00000+0  13299-3 0  9992
2 40074  98.4021 236.5599 0005176  90.6108 269.5699 14.84813849405750
BRITE-PL2 (HEWELIUSZ)   
1 40119U 14049B   22004.80258804  .00000280  00000+0  39329-4 0  9995
2 40119  97.8867 102.1848 0018520  60.3694 299.9363 14.84791841399728
FIREBIRD 4              
1 40378U 15003C   22004.90281500  .00006874  00000+0  23581-3 0  9990
2 40378  99.1126 194.1468 0111057 216.3858 142.9789 15.24855858383468
GRIFEX                  
1 40379U 15003D   22004.47643224  .00005299  00000+0  20692-3 0  9998
2 40379  99.1142 181.1464 0123027 255.4312 103.3247 15.19721866382709
CP10 (EXOCUBE)          
1 40380U 15003E   22004.66355229  .00003771  00000+0  15785-3 0  9996
2 40380  99.1176 174.9449 0129276 276.4044  82.2477 15.17126006382307
TIANWANG 1A (TW-1A)     
1 40928U 15051D   22004.84832448  .00012970  00000+0  23608-3 0  9994
2 40928  97.0601  30.1495 0006385 275.7538 209.5786 15.49601943352839
EXACTVIEW 9             
1 40936U 15052G   22004.08620571  .00001006  00000+0  50985-4 0  9999
2 40936   6.0031 266.3472 0010455 345.9895  13.9942 14.76831684338877
AEROCUBE 5C             
1 40965U 15058B   22004.87936348  .00000369  00000+0  57035-4 0  9990
2 40965  64.7755 227.5214 0208338 250.3637 107.4877 14.75015762124833
AEROCUBE 7              
1 40966U 15058C   22004.86314901  .00000500  00000+0  70316-4 0  9999
2 40966  64.7755 225.1360 0206853 250.0372 107.8348 14.75428896124825
ATHENOXAT 1             
1 41168U 15077C   22003.96643791  .00006762  00000+0  29523-3 0  9996
2 41168  14.9898 225.5072 0009892  87.6700 317.4925 15.17135101335265
GALASSIA                
1 41170U 15077E   21363.00544024  .00007859  00000+0  34864-3 0  9993
2 41170  14.9887 259.8306 0011516  39.5528 320.5633 15.17119561334279
VELOX-II                
1 41171U 15077F   22004.12676393  .00003421  00000+0  14849-3 0  9997
2 41171  14.9913 280.3025 0008375 339.1783  20.8197 15.13458211334727
HORYU-4                 
1 41340U 16012D   22004.90586046  .00001270  00000+0  87257-4 0  9990
2 41340  31.0056 322.6777 0013478  13.8308 346.2695 15.02299967323103
